{"type": "FeatureCollection", "features": [ {"type": "Feature", "properties": {"norad_id": 40664, "name": "SKY MEXICO-1", "group": "intelsat", "lat": 0.033899209310311255, "lon": 65.93515336227578, "alt_km": 35793.6777319927, "timestamp": "2025-12-20T03:42:47.059964+00:00", "meta": {"OBJECT_NAME": "SKY MEXICO-1", "OBJECT_ID": "2015-026B", "EPOCH": "2025-12-19T09:43:10.843104", "MEAN_MOTION": 1.00272289, "ECCENTRICITY": 0.000231, "INCLINATION": 0.0116, "RA_OF_ASC_NODE": 321.764, "ARG_OF_PERICENTER": 322.6243, "MEAN_ANOMALY": 230.8994, "EPHEMERIS_TYPE": 0, "CLASSIFICATION_TYPE": "U", "NORAD_CAT_ID": 40664, "ELEMENT_SET_NO": 999, "REV_AT_EPOCH": 3865, "BSTAR": 0, "MEAN_MOTION_DOT": -2.1e-06, "MEAN_MOTION_DDOT": 0}, "tle": {"line1": "1 40664U 15026B   25353.40498661 -.00000210  00000+0  00000+0 0  9992", "line2": "2 40664   0.0116 321.7640 0002310 322.6243 230.8994  1.00272289 38659"}}, "geometry": {"type": "Point", "coordinates": [65.93515336227578, 0.033899209310311255]}}, {"type": "Feature", "properties": {"norad_id": 40874, "name": "INTELSAT 34 (IS-34)", "group": "intelsat", "lat": 0.0403061881862312, "lon": 89.16658996563396, "alt_km": 35784.87932768183, "timestamp": "2025-12-20T03:42:47.059976+00:00", "meta": {"OBJECT_NAME": "INTELSAT 34 (IS-34)", "OBJECT_ID": "2015-039A", "EPOCH": "2025-12-19T11:17:13.926048", "MEAN_MOTION": 1.00271344, "ECCENTRICITY": 7.39e-05, "INCLINATION": 0.0152, "RA_OF_ASC_NODE": 339.5057, "ARG_OF_PERICENTER": 173.0812, "MEAN_ANOMALY": 49.536, "EPHEMERIS_TYPE": 0, "CLASSIFICATION_TYPE": "U", "NORAD_CAT_ID": 40874, "ELEMENT_SET_NO": 999, "REV_AT_EPOCH": 3782, "BSTAR": 0, "MEAN_MOTION_DOT": -2.61e-06, "MEAN_MOTION_DDOT": 0}, "tle": {"line1": "1 40874U 15039A   25353.47030007 -.00000261  00000+0  00000+0 0  9998", "line2": "2 40874   0.0152 339.5057 0000739 173.0812  49.5360  1.00271344 37825"}}, "geometry": {"type": "Point", "coordinates": [89.16658996563396, 0.0403061881862312]}}, {"type": "Feature", "properties": {"norad_id": 41581, "name": "INTELSAT 31 (IS-31)", "group": "intelsat", "lat": 0.027392526734029723, "lon": 49.61025442187962, "alt_km": 35794.91895472411, "timestamp": "2025-12-20T03:42:47.059988+00:00", "meta": {"OBJECT_NAME": "INTELSAT 31 (IS-31)", "OBJECT_ID": "2016-035A", "EPOCH": "2025-12-19T12:19:46.200288", "MEAN_MOTION": 1.0026847, "ECCENTRICITY": 0.0002165, "INCLINATION": 0.0258, "RA_OF_ASC_NODE": 271.2551, "ARG_OF_PERICENTER": 288.2416, "MEAN_ANOMALY": 338.7582, "EPHEMERIS_TYPE": 0, "CLASSIFICATION_TYPE": "U", "NORAD_CAT_ID": 41581, "ELEMENT_SET_NO": 999, "REV_AT_EPOCH": 3488, "BSTAR": 0, "MEAN_MOTION_DOT": -1.26e-06, "MEAN_MOTION_DDOT": 0}, "tle": {"line1": "1 41581U 16035A   25353.51372917 -.00000126  00000+0  00000+0 0  9995", "line2": "2 41581   0.0258 271.2551 0002165 288.2416 338.7582  1.00268470 34881"}}, "geometry": {"type": "Point", "coordinates": [49.61025442187962, 0.027392526734029723]}}, {"type": "Feature", "properties": {"norad_id": 41747, "name": "INTELSAT 36 (IS-36)", "group": "intelsat", "lat": -0.020622910686615835, "lon": -146.85482454195633, "alt_km": 35788.682345073736, "timestamp": "2025-12-20T03:42:47.060000+00:00", "meta": {"OBJECT_NAME": "INTELSAT 36 (IS-36)", "OBJECT_ID": "2016-053A", "EPOCH": "2025-12-19T10:09:53.233056", "MEAN_MOTION": 1.0026976, "ECCENTRICITY": 0.0001215, "INCLINATION": 0.0112, "RA_OF_ASC_NODE": 5.6919, "ARG_OF_PERICENTER": 321.406, "MEAN_ANOMALY": 342.1301, "EPHEMERIS_TYPE": 0, "CLASSIFICATION_TYPE": "U", "NORAD_CAT_ID": 41747, "ELEMENT_SET_NO": 999, "REV_AT_EPOCH": 3414, "BSTAR": 0, "MEAN_MOTION_DOT": 1e-08, "MEAN_MOTION_DDOT": 0}, "tle": {"line1": "1 41747U 16053A   25353.42353279  .00000001  00000+0  00000+0 0  9990", "line2": "2 41747   0.0112   5.6919 0001215 321.4060 342.1301  1.00269760 34141"}}, "geometry": {"type": "Point", "coordinates": [-146.85482454195633, -0.020622910686615835]}}, {"type": "Feature", "properties": {"norad_id": 41945, "name": "INTELSAT 32E (IS-32E)", "group": "intelsat", "lat": 0.03395880169501603, "lon": 101.49831127637822, "alt_km": 35785.77214489316, "timestamp": "2025-12-20T03:42:47.060011+00:00", "meta": {"OBJECT_NAME": "INTELSAT 32E (IS-32E)", "OBJECT_ID": "2017-007B", "EPOCH": "2025-12-19T06:12:37.307232", "MEAN_MOTION": 1.00269829, "ECCENTRICITY": 7.1e-05, "INCLINATION": 0.0325, "RA_OF_ASC_NODE": 74.0804, "ARG_OF_PERICENTER": 315.5885, "MEAN_ANOMALY": 108.4146, "EPHEMERIS_TYPE": 0, "CLASSIFICATION_TYPE": "U", "NORAD_CAT_ID": 41945, "ELEMENT_SET_NO": 999, "REV_AT_EPOCH": 3242, "BSTAR": 0, "MEAN_MOTION_DOT": -2.44e-06, "MEAN_MOTION_DDOT": 0}, "tle": {"line1": "1 41945U 17007B   25353.25876513 -.00000244  00000+0  00000+0 0  9992", "line2": "2 41945   0.0325  74.0804 0000710 315.5885 108.4146  1.00269829 32423"}}, "geometry": {"type": "Point", "coordinates": [101.49831127637822, 0.03395880169501603]}}, {"type": "Feature", "properties": {"norad_id": 42818, "name": "INTELSAT 35E (IS-35E)", "group": "intelsat", "lat": 0.007798751005583418, "lon": 110.18629178430771, "alt_km": 35793.689468963385, "timestamp": "2025-12-20T03:42:47.060023+00:00", "meta": {"OBJECT_NAME": "INTELSAT 35E (IS-35E)", "OBJECT_ID": "2017-041A", "EPOCH": "2025-12-19T11:20:21.674976", "MEAN_MOTION": 1.00271336, "ECCENTRICITY": 0.0001837, "INCLINATION": 0.0061, "RA_OF_ASC_NODE": 84.092, "ARG_OF_PERICENTER": 188.559, "MEAN_ANOMALY": 311.2747, "EPHEMERIS_TYPE": 0, "CLASSIFICATION_TYPE": "U", "NORAD_CAT_ID": 42818, "ELEMENT_SET_NO": 999, "REV_AT_EPOCH": 3101, "BSTAR": 0, "MEAN_MOTION_DOT": -2.13e-06, "MEAN_MOTION_DDOT": 0}, "tle": {"line1": "1 42818U 17041A   25353.47247309 -.00000213  00000+0  00000+0 0  9995", "line2": "2 42818   0.0061  84.0920 0001837 188.5590 311.2747  1.00271336 31013"}}, "geometry": {"type": "Point", "coordinates": [110.18629178430771, 0.007798751005583418]}}, {"type": "Feature", "properties": {"norad_id": 42950, "name": "INTELSAT 37E (IS-37E)", "group": "intelsat", "lat": 0.046966851502080804, "lon": 126.63420790096761, "alt_km": 35795.16549994053, "timestamp": "2025-12-20T03:42:47.060035+00:00", "meta": {"OBJECT_NAME": "INTELSAT 37E (IS-37E)", "OBJECT_ID": "2017-059A", "EPOCH": "2025-12-19T09:45:18.086976", "MEAN_MOTION": 1.00269424, "ECCENTRICITY": 0.000296, "INCLINATION": 0.0268, "RA_OF_ASC_NODE": 16.2864, "ARG_OF_PERICENTER": 242.3064, "MEAN_ANOMALY": 317.9748, "EPHEMERIS_TYPE": 0, "CLASSIFICATION_TYPE": "U", "NORAD_CAT_ID": 42950, "ELEMENT_SET_NO": 999, "REV_AT_EPOCH": 3026, "BSTAR": 0, "MEAN_MOTION_DOT": 0, "MEAN_MOTION_DDOT": 0}, "tle": {"line1": "1 42950U 17059A   25353.40645934  .00000000  00000+0  00000+0 0  9993", "line2": "2 42950   0.0268  16.2864 0002960 242.3064 317.9748  1.00269424 30261"}}, "geometry": {"type": "Point", "coordinates": [126.63420790096761, 0.046966851502080804]}}, {"type": "Feature", "properties": {"norad_id": 43632, "name": "AZERSPACE 2 (IS-38)", "group": "intelsat", "lat": 0.0031711088228059637, "lon": -170.218879066372, "alt_km": 35785.634826249974, "timestamp": "2025-12-20T03:42:47.060047+00:00", "meta": {"OBJECT_NAME": "AZERSPACE 2 (IS-38)", "OBJECT_ID": "2018-074A", "EPOCH": "2025-12-19T15:11:28.989888", "MEAN_MOTION": 1.00270569, "ECCENTRICITY": 0.0001143, "INCLINATION": 0.0061, "RA_OF_ASC_NODE": 40.7012, "ARG_OF_PERICENTER": 230.518, "MEAN_ANOMALY": 90.2474, "EPHEMERIS_TYPE": 0, "CLASSIFICATION_TYPE": "U", "NORAD_CAT_ID": 43632, "ELEMENT_SET_NO": 999, "REV_AT_EPOCH": 2664, "BSTAR": 0, "MEAN_MOTION_DOT": 1.61e-06, "MEAN_MOTION_DDOT": 0}, "tle": {"line1": "1 43632U 18074A   25353.63297442  .00000161  00000+0  00000+0 0  9999", "line2": "2 43632   0.0061  40.7012 0001143 230.5180  90.2474  1.00270569 26643"}}, "geometry": {"type": "Point", "coordinates": [-170.218879066372, 0.0031711088228059637]}}, {"type": "Feature", "properties": {"norad_id": 43633, "name": "HORIZONS-3E", "group": "intelsat", "lat": -0.007195442025109507, "lon": -46.329429057852366, "alt_km": 35783.53785572701, "timestamp": "2025-12-20T03:42:47.060058+00:00", "meta": {"OBJECT_NAME": "HORIZONS-3E", "OBJECT_ID": "2018-074B", "EPOCH": "2025-12-19T11:25:38.578080", "MEAN_MOTION": 1.00273661, "ECCENTRICITY": 4.75e-05, "INCLINATION": 0.0419, "RA_OF_ASC_NODE": 184.4159, "ARG_OF_PERICENTER": 126.4195, "MEAN_ANOMALY": 117.8859, "EPHEMERIS_TYPE": 0, "CLASSIFICATION_TYPE": "U", "NORAD_CAT_ID": 43633, "ELEMENT_SET_NO": 999, "REV_AT_EPOCH": 2653, "BSTAR": 0, "MEAN_MOTION_DOT": -5e-08, "MEAN_MOTION_DDOT": 0}, "tle": {"line1": "1 43633U 18074B   25353.47614095 -.00000005  00000+0  00000+0 0  9997", "line2": "2 43633   0.0419 184.4159 0000475 126.4195 117.8859  1.00273661 26532"}}, "geometry": {"type": "Point", "coordinates": [-46.329429057852366, -0.007195442025109507]}}, {"type": "Feature", "properties": {"norad_id": 44333, "name": "AT&T T-16", "group": "intelsat", "lat": 0.007390686525838564, "lon": 43.80454558730009, "alt_km": 35787.82159950319, "timestamp": "2025-12-20T03:42:47.060070+00:00", "meta": {"OBJECT_NAME": "AT&T T-16", "OBJECT_ID": "2019-034A", "EPOCH": "2025-12-19T13:25:39.897120", "MEAN_MOTION": 1.00270126, "ECCENTRICITY": 0.000115, "INCLINATION": 0.0216, "RA_OF_ASC_NODE": 60.6149, "ARG_OF_PERICENTER": 88.5847, "MEAN_ANOMALY": 39.7646, "EPHEMERIS_TYPE": 0, "CLASSIFICATION_TYPE": "U", "NORAD_CAT_ID": 44333, "ELEMENT_SET_NO": 999, "REV_AT_EPOCH": 2383, "BSTAR": 0, "MEAN_MOTION_DOT": -9.1e-07, "MEAN_MOTION_DDOT": 0}, "tle": {"line1": "1 44333U 19034A   25353.55948955 -.00000091  00000+0  00000+0 0  9991", "line2": "2 44333   0.0216  60.6149 0001150  88.5847  39.7646  1.00270126 23831"}}, "geometry": {"type": "Point", "coordinates": [43.80454558730009, 0.007390686525838564]}}]}